OBJECT_NAME,OBJECT_ID,EPOCH,MEAN_MOTION,ECCENTRICITY,INCLINATION,RA_OF_ASC_NODE,ARG_OF_PERICENTER,MEAN_ANOMALY,EPHEMERIS_TYPE,CLASSIFICATION_TYPE,NORAD_CAT_ID,ELEMENT_SET_NO,REV_AT_EPOCH,BSTAR,MEAN_MOTION_DOT,MEAN_MOTION_DDOT
INTELSAT 902 (IS-902),2001-039A,2026-06-07T04:37:58.935072,1.00270646,.0004296,6.0933,71.9037,1.6561,201.4206,0,U,26900,999,9059,0,-.27E-5,0
INTELSAT 904 (IS-904),2002-007A,2026-06-06T15:02:01.861152,1.00270083,.0007136,6.8931,69.3106,0.5431,19.1983,0,U,27380,999,5166,0,-.213E-5,0
DIRECTV 5 (TEMPO 1),2002-023A,2026-06-07T14:58:48.497088,1.00271678,.0003412,4.8525,75.4290,10.4415,284.7555,0,U,27426,999,8802,0,-.43E-6,0
INTELSAT 905 (IS-905),2002-027A,2026-06-07T13:05:35.062080,1.00273058,.0004099,6.7285,69.9157,15.2283,229.9944,0,U,27438,999,5126,0,.107E-5,0
GALAXY 3C (G-3C),2002-030A,2026-06-07T14:40:56.496000,1.00271611,.0001854,3.7053,78.1045,30.6428,272.6531,0,U,27445,999,4639,0,-.138E-5,0
INTELSAT 906 (IS-906),2002-041A,2026-06-07T18:51:59.573088,1.00271075,.0004684,5.7800,73.0355,357.5851,172.6949,0,U,27513,999,8693,0,.28E-6,0
GALAXY 13 (HORIZONS-1),2003-044A,2026-06-07T16:08:13.058304,1.00272947,.0002086,1.3957,83.9733,347.6241,276.5139,0,U,27954,999,4647,0,.147E-5,0
INTELSAT 10-02,2004-022A,2026-06-07T18:33:18.469152,1.00279076,.0000174,0.0052,326.5276,254.1379,312.8297,0,U,28358,999,8046,0,.5E-7,0
DIRECTV 8,2005-019A,2026-06-07T14:34:19.628832,1.00271292,.0002924,0.0176,10.0104,72.3447,273.1915,0,U,28659,999,7697,0,.16E-6,0
GALAXY 28 (G-28),2005-022A,2026-06-07T18:25:56.673984,1.00273000,.0002818,3.2754,79.0455,352.8963,73.6032,0,U,28702,999,5188,0,-.185E-5,0
GALAXY 16 (G-16),2006-023A,2026-06-07T16:22:41.670336,1.00271915,.0002728,0.0019,244.0292,192.2785,326.4528,0,U,29236,999,7287,0,-.112E-5,0
DIRECTV 9S,2006-043A,2026-06-07T16:22:04.228896,1.00271622,.0005088,2.3953,81.0171,6.2111,313.1889,0,U,29494,999,5128,0,-.99E-6,0
GALAXY 17 (G-17),2007-016B,2026-06-07T13:01:22.876032,1.00272039,.0004896,2.9469,80.0223,14.6794,271.6000,0,U,31307,999,6970,0,-.192E-5,0
INTELSAT 11 (IS-11),2007-044B,2026-06-07T17:38:41.801856,0.99053762,.0001837,3.5400,78.7841,81.2968,168.0781,0,U,32253,999,6835,0,-.213E-5,0
HORIZONS-2,2007-063B,2026-06-07T13:04:37.563744,1.00272349,.0004057,2.5764,80.7444,354.6268,302.9651,0,U,32388,999,6771,0,-.239E-5,0
DIRECTV 11,2008-013A,2026-06-07T14:39:56.592288,1.00273719,.0000485,0.0327,183.0093,231.4353,322.3797,0,U,32729,999,4549,0,-.111E-5,0
GALAXY 18 (G-18),2008-024A,2026-06-07T17:58:32.399904,1.00272856,.0003197,0.0250,71.7387,15.2757,315.7680,0,U,32951,999,4575,0,.4E-6,0
INTELSAT 25 (IS-25),2008-034A,2026-06-07T17:37:41.899008,0.99020653,.0001891,2.6831,80.4431,31.7240,212.1411,0,U,33153,999,6559,0,-.229E-5,0
GALAXY 19 (G-19),2008-045A,2026-06-07T14:40:41.520288,1.00272044,.0002797,0.0219,78.0304,356.6886,304.4796,0,U,33376,999,6480,0,-.125E-5,0
FM-5,2009-034A,2026-06-07T14:43:41.233152,1.00273109,.0000598,0.0184,288.8152,25.4069,76.5681,0,U,35493,999,4654,0,-.186E-5,0
INTELSAT 14 (IS-14),2009-064A,2026-06-07T18:20:49.666272,1.00271224,.000282,0.0157,330.8130,121.6505,33.9204,0,U,36097,999,6051,0,-.258E-5,0
INTELSAT 15 (IS-15),2009-067A,2026-06-07T18:57:51.512256,1.00271629,.0002299,0.0031,343.4683,96.3018,186.0389,0,U,36106,999,4113,0,-.17E-5,0
DIRECTV 12,2009-075A,2026-06-07T14:39:04.175136,1.00270450,.0000259,0.0273,150.8162,248.0677,334.1802,0,U,36131,999,4645,0,-.89E-6,0
INTELSAT 16 (IS-16),2010-006A,2026-06-07T13:03:52.635744,1.00270898,.0002192,0.0231,49.9771,40.6889,285.0667,0,U,36397,999,5955,0,-.23E-5,0
XM-5,2010-053A,2026-06-07T14:35:27.020832,1.00272663,.0002929,0.0670,273.0946,284.9989,161.5916,0,U,37185,999,5738,0,-.9E-7,0
INTELSAT 17 (IS-17),2010-065B,2026-06-07T18:32:18.588768,1.00272301,.0002559,0.0041,133.4900,315.5108,151.2436,0,U,37238,999,5315,0,.13E-6,0
INTELSAT 28 (IS-28),2011-016A,2026-06-07T18:24:34.307136,1.00268922,.0003911,1.7809,82.7395,354.0367,63.8324,0,U,37392,999,5319,0,-.21E-5,0
INTELSAT 18 (IS-18),2011-056A,2026-06-07T15:59:36.381984,1.00272184,.0002156,0.0191,319.0517,131.6868,225.2343,0,U,37834,999,5371,0,.68E-6,0
INTELSAT 22 (IS-22),2012-011A,2026-06-07T18:54:14.357952,1.00273334,.0001609,0.0215,62.3604,4.5520,184.9332,0,U,38098,999,709,0,-.44E-6,0
INTELSAT 19 (IS-19),2012-030A,2026-06-07T14:13:00.863904,1.00271459,.0003093,0.0106,32.4422,51.8353,190.9735,0,U,38356,999,5035,0,-.42E-6,0
INTELSAT 20 (IS-20),2012-043A,2026-06-07T17:10:28.921728,1.00272191,.0001779,0.0097,87.3258,87.5620,47.3462,0,U,38740,999,5065,0,-.1E-6,0
